CYGNUS NG-23            
1 65616U 25208A   25356.53682406  .00011576  00000+0  21250-3 0  9998
2 65616  51.6324  93.9618 0003153 285.9755  74.0886 15.49728746   226
DRAGONFLY               
1 65729U 98067XH  25356.51868607  .00205699  00000+0  13132-2 0  9993
2 65729  51.6245  85.5681 0007791 337.4255  22.6401 15.75175464 14702
1998-067XK              
1 65731U 98067XK  25356.49366199  .00110692  00000+0  98825-3 0  9993
2 65731  51.6296  87.6784 0004876 307.2802  52.7749 15.67550975 14672
RSP-03                  
1 65732U 98067XL  25356.54235272  .00144397  00000+0  11094-2 0  9998
2 65732  51.6262  86.4899 0005833 314.1528  45.8989 15.71055335 14704
GHS-01                  
1 65733U 98067XM  25356.51273131  .00278334  00000+0  14795-2 0  9992
2 65733  51.6292  84.7862 0008851 340.8891  19.1777 15.79083462 14722
YOTSUBA-KULOVER         
1 65941U 98067XN  25356.51317765  .00068061  00000+0  80270-3 0  9991
2 65941  51.6295  90.8089 0002109 341.8055  18.2862 15.60714996 11385
BOTAN                   
1 65942U 98067XP  25356.30350127  .00120580  00000+0  12004-2 0  9992
2 65942  51.6283  90.9078 0003112 318.7343  41.3416 15.64805517 11364
E-KAGAKU-1              
1 65943U 98067XQ  25356.44925386  .00073283  00000+0  86344-3 0  9999
2 65943  51.6319  91.1385 0001296 295.9007  64.1852 15.60710313 11376
HRC MONOBLOCK CAMERA    
1 66052U 98067XR  25355.71589160  .00032497  00000+0  48538-3 0  9991
2 66052  51.6309  96.7319 0002302 227.1692 132.9105 15.54728821 10236
HTV-X1                  
1 66174U 25241A   25356.53682406  .00011576  00000+0  21250-3 0  9995
2 66174  51.6324  93.9618 0003153 285.9755  74.0886 15.49728746   518
SZ-21 MODULE            
1 66515U 25246C   25356.25315771  .00029176  00000+0  31521-3 0  9993
2 66515  41.4776 317.9924 0005209 311.1717  48.8673 15.62957896  5937
SHENZHOU-22             
1 66645U 25272A   25356.57750809  .00018108  00000+0  22463-3 0  9994
2 66645  41.4686 316.9649 0007857 117.6887 242.4750 15.59570921265507
