CCSDS_OMM_VERS = 2.0
CREATION_DATE  = 
ORIGINATOR     = 

OBJECT_NAME    = CYGNUS NG-23
OBJECT_ID      = 2025-208A
CENTER_NAME    = EARTH
REF_FRAME      = TEME
TIME_SYSTEM    = UTC
MEAN_ELEMENT_THEORY = SGP/SGP4

EPOCH          = 2025-12-22T12:53:01.598784
MEAN_MOTION    = 15.49728746
ECCENTRICITY   = .00031539
INCLINATION    = 51.6324
RA_OF_ASC_NODE = 93.9618
ARG_OF_PERICENTER = 285.9755
MEAN_ANOMALY   = 74.0886

EPHEMERIS_TYPE = 0
CLASSIFICATION_TYPE = U
NORAD_CAT_ID   = 65616
ELEMENT_SET_NO = 999
REV_AT_EPOCH   = 22
BSTAR          = .21249665E-3
MEAN_MOTION_DOT = .11576E-3
MEAN_MOTION_DDOT = 0

CCSDS_OMM_VERS = 2.0
CREATION_DATE  = 
ORIGINATOR     = 

OBJECT_NAME    = DRAGONFLY
OBJECT_ID      = 1998-067XH
CENTER_NAME    = EARTH
REF_FRAME      = TEME
TIME_SYSTEM    = UTC
MEAN_ELEMENT_THEORY = SGP/SGP4

EPOCH          = 2025-12-22T12:26:54.476448
MEAN_MOTION    = 15.75175464
ECCENTRICITY   = .00077918
INCLINATION    = 51.6245
RA_OF_ASC_NODE = 85.5681
ARG_OF_PERICENTER = 337.4255
MEAN_ANOMALY   = 22.6401

EPHEMERIS_TYPE = 0
CLASSIFICATION_TYPE = U
NORAD_CAT_ID   = 65729
ELEMENT_SET_NO = 999
REV_AT_EPOCH   = 1470
BSTAR          = .1313189E-2
MEAN_MOTION_DOT = .205699E-2
MEAN_MOTION_DDOT = 0

CCSDS_OMM_VERS = 2.0
CREATION_DATE  = 
ORIGINATOR     = 

OBJECT_NAME    = 1998-067XK
OBJECT_ID      = 1998-067XK
CENTER_NAME    = EARTH
REF_FRAME      = TEME
TIME_SYSTEM    = UTC
MEAN_ELEMENT_THEORY = SGP/SGP4

EPOCH          = 2025-12-22T11:50:52.395936
MEAN_MOTION    = 15.67550975
ECCENTRICITY   = .00048767
INCLINATION    = 51.6296
RA_OF_ASC_NODE = 87.6784
ARG_OF_PERICENTER = 307.2802
MEAN_ANOMALY   = 52.7749

EPHEMERIS_TYPE = 0
CLASSIFICATION_TYPE = U
NORAD_CAT_ID   = 65731
ELEMENT_SET_NO = 999
REV_AT_EPOCH   = 1467
BSTAR          = .98825287E-3
MEAN_MOTION_DOT = .110692E-2
MEAN_MOTION_DDOT = 0

CCSDS_OMM_VERS = 2.0
CREATION_DATE  = 
ORIGINATOR     = 

OBJECT_NAME    = RSP-03
OBJECT_ID      = 1998-067XL
CENTER_NAME    = EARTH
REF_FRAME      = TEME
TIME_SYSTEM    = UTC
MEAN_ELEMENT_THEORY = SGP/SGP4

EPOCH          = 2025-12-22T13:00:59.275008
MEAN_MOTION    = 15.71055335
ECCENTRICITY   = .00058331
INCLINATION    = 51.6262
RA_OF_ASC_NODE = 86.4899
ARG_OF_PERICENTER = 314.1528
MEAN_ANOMALY   = 45.8989

EPHEMERIS_TYPE = 0
CLASSIFICATION_TYPE = U
NORAD_CAT_ID   = 65732
ELEMENT_SET_NO = 999
REV_AT_EPOCH   = 1470
BSTAR          = .11094477E-2
MEAN_MOTION_DOT = .144397E-2
MEAN_MOTION_DDOT = 0

CCSDS_OMM_VERS = 2.0
CREATION_DATE  = 
ORIGINATOR     = 

OBJECT_NAME    = GHS-01
OBJECT_ID      = 1998-067XM
CENTER_NAME    = EARTH
REF_FRAME      = TEME
TIME_SYSTEM    = UTC
MEAN_ELEMENT_THEORY = SGP/SGP4

EPOCH          = 2025-12-22T12:18:19.985184
MEAN_MOTION    = 15.79083462
ECCENTRICITY   = .00088517
INCLINATION    = 51.6292
RA_OF_ASC_NODE = 84.7862
ARG_OF_PERICENTER = 340.8891
MEAN_ANOMALY   = 19.1777

EPHEMERIS_TYPE = 0
CLASSIFICATION_TYPE = U
NORAD_CAT_ID   = 65733
ELEMENT_SET_NO = 999
REV_AT_EPOCH   = 1472
BSTAR          = .14795008E-2
MEAN_MOTION_DOT = .278334E-2
MEAN_MOTION_DDOT = 0

CCSDS_OMM_VERS = 2.0
CREATION_DATE  = 
ORIGINATOR     = 

OBJECT_NAME    = YOTSUBA-KULOVER
OBJECT_ID      = 1998-067XN
CENTER_NAME    = EARTH
REF_FRAME      = TEME
TIME_SYSTEM    = UTC
MEAN_ELEMENT_THEORY = SGP/SGP4

EPOCH          = 2025-12-22T12:18:58.548960
MEAN_MOTION    = 15.60714996
ECCENTRICITY   = .00021092
INCLINATION    = 51.6295
RA_OF_ASC_NODE = 90.8089
ARG_OF_PERICENTER = 341.8055
MEAN_ANOMALY   = 18.2862

EPHEMERIS_TYPE = 0
CLASSIFICATION_TYPE = U
NORAD_CAT_ID   = 65941
ELEMENT_SET_NO = 999
REV_AT_EPOCH   = 1138
BSTAR          = .80270144E-3
MEAN_MOTION_DOT = .68061E-3
MEAN_MOTION_DDOT = 0

CCSDS_OMM_VERS = 2.0
CREATION_DATE  = 
ORIGINATOR     = 

OBJECT_NAME    = BOTAN
OBJECT_ID      = 1998-067XP
CENTER_NAME    = EARTH
REF_FRAME      = TEME
TIME_SYSTEM    = UTC
MEAN_ELEMENT_THEORY = SGP/SGP4

EPOCH          = 2025-12-22T07:17:02.509728
MEAN_MOTION    = 15.64805517
ECCENTRICITY   = .00031122
INCLINATION    = 51.6283
RA_OF_ASC_NODE = 90.9078
ARG_OF_PERICENTER = 318.7343
MEAN_ANOMALY   = 41.3416

EPHEMERIS_TYPE = 0
CLASSIFICATION_TYPE = U
NORAD_CAT_ID   = 65942
ELEMENT_SET_NO = 999
REV_AT_EPOCH   = 1136
BSTAR          = .12003898E-2
MEAN_MOTION_DOT = .12058E-2
MEAN_MOTION_DDOT = 0

CCSDS_OMM_VERS = 2.0
CREATION_DATE  = 
ORIGINATOR     = 

OBJECT_NAME    = E-KAGAKU-1
OBJECT_ID      = 1998-067XQ
CENTER_NAME    = EARTH
REF_FRAME      = TEME
TIME_SYSTEM    = UTC
MEAN_ELEMENT_THEORY = SGP/SGP4

EPOCH          = 2025-12-22T10:46:55.533504
MEAN_MOTION    = 15.60710313
ECCENTRICITY   = .00012968
INCLINATION    = 51.6319
RA_OF_ASC_NODE = 91.1385
ARG_OF_PERICENTER = 295.9007
MEAN_ANOMALY   = 64.1852

EPHEMERIS_TYPE = 0
CLASSIFICATION_TYPE = U
NORAD_CAT_ID   = 65943
ELEMENT_SET_NO = 999
REV_AT_EPOCH   = 1137
BSTAR          = .86344374E-3
MEAN_MOTION_DOT = .73283E-3
MEAN_MOTION_DDOT = 0

CCSDS_OMM_VERS = 2.0
CREATION_DATE  = 
ORIGINATOR     = 

OBJECT_NAME    = HRC MONOBLOCK CAMERA
OBJECT_ID      = 1998-067XR
CENTER_NAME    = EARTH
REF_FRAME      = TEME
TIME_SYSTEM    = UTC
MEAN_ELEMENT_THEORY = SGP/SGP4

EPOCH          = 2025-12-21T17:10:53.034240
MEAN_MOTION    = 15.54728821
ECCENTRICITY   = .00023026
INCLINATION    = 51.6309
RA_OF_ASC_NODE = 96.7319
ARG_OF_PERICENTER = 227.1692
MEAN_ANOMALY   = 132.9105

EPHEMERIS_TYPE = 0
CLASSIFICATION_TYPE = U
NORAD_CAT_ID   = 66052
ELEMENT_SET_NO = 999
REV_AT_EPOCH   = 1023
BSTAR          = .48538169E-3
MEAN_MOTION_DOT = .32497E-3
MEAN_MOTION_DDOT = 0

CCSDS_OMM_VERS = 2.0
CREATION_DATE  = 
ORIGINATOR     = 

OBJECT_NAME    = HTV-X1
OBJECT_ID      = 2025-241A
CENTER_NAME    = EARTH
REF_FRAME      = TEME
TIME_SYSTEM    = UTC
MEAN_ELEMENT_THEORY = SGP/SGP4

EPOCH          = 2025-12-22T12:53:01.598784
MEAN_MOTION    = 15.49728746
ECCENTRICITY   = .00031539
INCLINATION    = 51.6324
RA_OF_ASC_NODE = 93.9618
ARG_OF_PERICENTER = 285.9755
MEAN_ANOMALY   = 74.0886

EPHEMERIS_TYPE = 0
CLASSIFICATION_TYPE = U
NORAD_CAT_ID   = 66174
ELEMENT_SET_NO = 999
REV_AT_EPOCH   = 51
BSTAR          = .21249665E-3
MEAN_MOTION_DOT = .11576E-3
MEAN_MOTION_DDOT = 0

CCSDS_OMM_VERS = 2.0
CREATION_DATE  = 
ORIGINATOR     = 

OBJECT_NAME    = SZ-21 MODULE
OBJECT_ID      = 2025-246C
CENTER_NAME    = EARTH
REF_FRAME      = TEME
TIME_SYSTEM    = UTC
MEAN_ELEMENT_THEORY = SGP/SGP4

EPOCH          = 2025-12-22T06:04:32.826144
MEAN_MOTION    = 15.62957896
ECCENTRICITY   = .00052091
INCLINATION    = 41.4776
RA_OF_ASC_NODE = 317.9924
ARG_OF_PERICENTER = 311.1717
MEAN_ANOMALY   = 48.8673

EPHEMERIS_TYPE = 0
CLASSIFICATION_TYPE = U
NORAD_CAT_ID   = 66515
ELEMENT_SET_NO = 999
REV_AT_EPOCH   = 593
BSTAR          = .31521047E-3
MEAN_MOTION_DOT = .29176E-3
MEAN_MOTION_DDOT = 0

CCSDS_OMM_VERS = 2.0
CREATION_DATE  = 
ORIGINATOR     = 

OBJECT_NAME    = SHENZHOU-22
OBJECT_ID      = 2025-272A
CENTER_NAME    = EARTH
REF_FRAME      = TEME
TIME_SYSTEM    = UTC
MEAN_ELEMENT_THEORY = SGP/SGP4

EPOCH          = 2025-12-22T13:51:36.698976
MEAN_MOTION    = 15.59570921
ECCENTRICITY   = .00078575
INCLINATION    = 41.4686
RA_OF_ASC_NODE = 316.9649
ARG_OF_PERICENTER = 117.6887
MEAN_ANOMALY   = 242.4750

EPHEMERIS_TYPE = 0
CLASSIFICATION_TYPE = U
NORAD_CAT_ID   = 66645
ELEMENT_SET_NO = 999
REV_AT_EPOCH   = 26550
BSTAR          = .22463103E-3
MEAN_MOTION_DOT = .18108E-3
MEAN_MOTION_DDOT = 0

